{"type":"FeatureCollection","features":[{"type":"Feature","properties":{"id":"qol-sharif","coordinates":[49.1051597,55.79834865],"sourceUrl":"https://www.openstreetmap.org/way/230132591","buildingId":"65bec153-c7ef-4afa-b71c-322edb2741d0","pointInFootprint":true,"matchMethod":"exact-osm-source-record-id","osmRecordId":"w230132591@34","buildingPartIds":["63393536-6239-3366-B462-666363363163","31393938-6439-3335-A434-663264353262","35373361-6230-3033-B662-646261306431","65653062-6439-3965-A635-386535646439","39353464-3839-3530-A435-343638303966","62633131-3965-3739-A431-616661356639","62636265-6432-3434-B832-353134636136","65336530-6231-3030-B532-326431353632"]},"geometry":{"type":"Polygon","coordinates":[[[49.1048181,55.79836],[49.1048538,55.7983244],[49.1048312,55.798291],[49.1048132,55.7982643],[49.1049289,55.7982396],[49.1049526,55.7982009],[49.1050032,55.7981715],[49.1050713,55.798157],[49.1051438,55.7981601],[49.1052072,55.7981802],[49.1053193,55.7981563],[49.1053599,55.7982164],[49.1054287,55.7982297],[49.105481,55.7982582],[49.1055068,55.7982964],[49.1055013,55.7983372],[49.1054656,55.7983728],[49.1055062,55.798433],[49.1053901,55.7984577],[49.1053664,55.7984964],[49.1053158,55.7985258],[49.1052795,55.7985336],[49.1052478,55.7985403],[49.1051752,55.7985372],[49.1051118,55.7985171],[49.1050001,55.798541],[49.1049595,55.7984808],[49.1048907,55.7984675],[49.1048384,55.7984391],[49.1048126,55.7984008],[49.1048181,55.79836]]]}},{"type":"Feature","properties":{"id":"suyumbike","coordinates":[49.10518105,55.80047585],"sourceUrl":"https://www.openstreetmap.org/way/228963085","buildingId":"3d7c4c6f-87ab-446a-bfb8-3ba2a7e9582c","pointInFootprint":true,"matchMethod":"exact-osm-source-record-id","osmRecordId":"w228963085@25","buildingPartIds":["30323830-6332-3262-B964-383231643365","38366463-6334-3330-B337-316333633436","36393638-3637-3462-A338-303637633733","32653536-3639-3163-A461-396437636337","30663931-3262-3735-B463-656162646337","32643262-3561-3561-B838-616630646337","32356464-3530-3664-B430-633833303033"]},"geometry":{"type":"Polygon","coordinates":[[[49.1052528,55.8005559],[49.1052477,55.800568],[49.1050991,55.800548],[49.1050475,55.8005411],[49.1050824,55.8004591],[49.1051145,55.8003837],[49.1052648,55.8004039],[49.1053146,55.8004106],[49.1052835,55.8004839],[49.1052528,55.8005559]]]}},{"type":"Feature","properties":{"id":"spasskaya","coordinates":[49.10807935,55.79653445],"sourceUrl":"https://www.openstreetmap.org/relation/15958803","buildingId":"93353e22-ac5a-4f2c-9060-a070d46a21a8","pointInFootprint":true,"matchMethod":"exact-osm-source-record-id","osmRecordId":"r15958803@6","buildingPartIds":["39373362-3736-3432-B034-323930626630","39646635-6335-3364-B632-663633663039","34383366-6162-3330-B537-616665373232","32646639-3837-3630-B361-656638356637"]},"geometry":{"type":"Polygon","coordinates":[[[49.1077278,55.7965538],[49.1077457,55.7965255],[49.1077629,55.7964983],[49.1078025,55.7965062],[49.1078543,55.7965165],[49.1079183,55.7965293],[49.1079121,55.7965392],[49.1080129,55.7965593],[49.1080786,55.7964552],[49.1081303,55.7964655],[49.1081962,55.7964786],[49.1082427,55.7964879],[49.1082846,55.7964963],[49.108343,55.7965079],[49.1083958,55.7965185],[49.1083356,55.7966137],[49.1083013,55.7966682],[49.1082779,55.7967052],[49.108225,55.7966946],[49.1080935,55.7966684],[49.1080588,55.7966614],[49.107996,55.7966489],[49.1078583,55.7966214],[49.1077754,55.7966049],[49.107781,55.7965961],[49.1077355,55.796587],[49.1077101,55.7965819],[49.1077184,55.7965687],[49.1077278,55.7965538]]]}},{"type":"Feature","properties":{"id":"farmers-palace","coordinates":[49.1119517,55.800457],"sourceUrl":"https://www.openstreetmap.org/way/90251771","buildingId":"49106643-eb01-47ea-84f0-f63202c020f4","pointInFootprint":true,"matchMethod":"exact-osm-source-record-id","osmRecordId":"w90251771@17","buildingPartIds":["31336438-3439-3162-A139-336237383564","65306233-6139-3933-A338-306134313165","65313436-3536-3161-B364-363464636565","31623436-3739-3730-B663-363338313233","32633066-6565-3665-B430-326139383939"]},"geometry":{"type":"Polygon","coordinates":[[[49.1109493,55.8002956],[49.1109177,55.8002822],[49.1109414,55.8002646],[49.1109591,55.8002514],[49.1109976,55.8002228],[49.1110237,55.8002035],[49.1110583,55.8002182],[49.1112929,55.8000439],[49.1112582,55.8000291],[49.1112833,55.8000105],[49.1113356,55.7999716],[49.1113467,55.7999634],[49.1113709,55.7999454],[49.1114035,55.7999592],[49.1114823,55.7999928],[49.1115156,55.8000069],[49.1114926,55.800024],[49.1114836,55.8000307],[49.1114712,55.8000399],[49.1115143,55.8001009],[49.1115603,55.8001579],[49.1116218,55.8002096],[49.1116891,55.8002539],[49.1117269,55.8002802],[49.1118145,55.8002053],[49.1118527,55.8001754],[49.112446,55.8004405],[49.1124106,55.8004668],[49.1123248,55.8005261],[49.1123931,55.8005499],[49.1124987,55.8005732],[49.1126137,55.8005941],[49.1127057,55.8006021],[49.1127908,55.8006023],[49.1128153,55.8005841],[49.1128364,55.8005684],[49.1128656,55.8005808],[49.1129574,55.8006198],[49.1129857,55.8006319],[49.1129723,55.8006418],[49.1129646,55.8006475],[49.1129376,55.8006666],[49.1129031,55.8006931],[49.1128786,55.8007113],[49.1128501,55.8006992],[49.1126161,55.8008731],[49.1126446,55.8008852],[49.1126181,55.8009049],[49.1125746,55.8009374],[49.1125616,55.8009471],[49.1125326,55.8009686],[49.1124957,55.800953],[49.1124578,55.8009369],[49.1124199,55.8009207],[49.1123832,55.8009052],[49.1124109,55.8008847],[49.1124314,55.8008694],[49.1124037,55.8008272],[49.1123664,55.8007876],[49.1123182,55.800741],[49.1122608,55.8006966],[49.1121897,55.8006543],[49.112089,55.8006108],[49.1120384,55.8005885],[49.1119878,55.8005661],[49.1117896,55.8004784],[49.1117158,55.8004458],[49.1116863,55.8004327],[49.1115779,55.8003921],[49.1114827,55.8003615],[49.1113682,55.8003343],[49.1112527,55.800318],[49.1111123,55.8003066],[49.1110874,55.8003251],[49.1110624,55.8003437],[49.11103,55.8003299],[49.1109897,55.8003128],[49.1109493,55.8002956]]]}},{"type":"Feature","properties":{"id":"kazan-family-center","coordinates":[49.10824125,55.8128093],"sourceUrl":"https://www.openstreetmap.org/way/222787130","buildingId":"a8a7332c-9e49-44eb-9d64-c8620b864337","pointInFootprint":true,"matchMethod":"exact-osm-source-record-id","osmRecordId":"w222787130@24","buildingPartIds":["62383036-3261-3438-B236-383935303232","36653461-6338-3236-B831-366231646262"]},"geometry":{"type":"Polygon","coordinates":[[[49.1083105,55.8129883],[49.1082526,55.8129924],[49.1081946,55.8129906],[49.1081516,55.8129855],[49.1080999,55.8129744],[49.1080592,55.8129613],[49.1080129,55.8129401],[49.1079846,55.8129223],[49.107958,55.8129],[49.1079351,55.8128723],[49.1079207,55.8128427],[49.1079154,55.812816],[49.1079185,55.8127836],[49.1079278,55.8127589],[49.1079485,55.8127287],[49.107971,55.8127068],[49.1080012,55.8126854],[49.1080409,55.8126648],[49.1080843,55.8126487],[49.1081304,55.812637],[49.1081858,55.8126288],[49.1082309,55.8126262],[49.1082797,55.8126274],[49.1083323,55.8126334],[49.1083754,55.8126424],[49.1084248,55.8126579],[49.1084713,55.8126795],[49.1084991,55.8126972],[49.108523,55.8127172],[49.1085481,55.8127475],[49.1085613,55.8127746],[49.1085671,55.8128037],[49.1085651,55.8128305],[49.1085543,55.8128605],[49.1085327,55.8128914],[49.108511,55.8129122],[49.1084703,55.8129397],[49.1084415,55.8129539],[49.1084053,55.8129676],[49.1083525,55.8129815],[49.1083105,55.8129883]]]}},{"type":"Feature","properties":{"id":"innopolis-university","coordinates":[48.74362155,55.7536903],"sourceUrl":"https://www.openstreetmap.org/way/308285819","buildingId":"2506a6d9-1834-4465-ab18-61ddf82cd5da","pointInFootprint":true,"matchMethod":"exact-osm-source-record-id","osmRecordId":"w308285819@18","buildingPartIds":["36316239-6466-3466-A461-663339383937"]},"geometry":{"type":"Polygon","coordinates":[[[48.7429548,55.7540796],[48.7427759,55.7536798],[48.7428508,55.7536193],[48.7429218,55.7535641],[48.7432589,55.7532968],[48.7437093,55.7529397],[48.7437925,55.7528367],[48.7444672,55.7530919],[48.74438,55.7531949],[48.7439161,55.7535503],[48.7434923,55.7539016],[48.7437408,55.7544647],[48.7431626,55.7545439],[48.7429785,55.7541324],[48.7429548,55.7540796]]]}},{"type":"Feature","properties":{"id":"popov-technopark","coordinates":[48.75229995,55.7519036],"sourceUrl":"https://www.openstreetmap.org/relation/3399852","buildingId":"efe7e105-c490-4126-924c-f53867aa62dd","pointInFootprint":false,"matchMethod":"exact-osm-source-record-id","osmRecordId":"r3399852@4","buildingPartIds":[]},"geometry":{"type":"Polygon","coordinates":[[[48.7530786,55.7516907],[48.7531508,55.7518123],[48.7531642,55.7519402],[48.753118,55.7520657],[48.7530153,55.7521801],[48.7528633,55.7522755],[48.7526672,55.7523468],[48.7524445,55.752386],[48.7522112,55.7523904],[48.7519843,55.7523596],[48.7517802,55.7522959],[48.7516137,55.7522039],[48.7514928,55.7520847],[48.7514357,55.7519513],[48.7514467,55.7518142],[48.7515252,55.7516843],[48.7516648,55.7515718],[48.7518546,55.7514856],[48.7520795,55.7514325],[48.7523217,55.7514168],[48.7525621,55.7514396],[48.7527818,55.7514992],[48.7529527,55.7515839],[48.7530786,55.7516907]],[[48.7524654,55.7521129],[48.7525718,55.7520718],[48.7526505,55.7520141],[48.7526883,55.7519541],[48.7526936,55.7519456],[48.752697,55.7518729],[48.7526603,55.7518032],[48.7525871,55.7517433],[48.7524846,55.7516991],[48.7523629,55.7516748],[48.7522338,55.7516729],[48.7521099,55.7516936],[48.7520035,55.7517347],[48.7519249,55.7517924],[48.7518817,55.7518609],[48.7518784,55.7519336],[48.7519151,55.7520033],[48.7519882,55.7520632],[48.7520907,55.7521074],[48.7522124,55.7521317],[48.7523416,55.7521336],[48.7524654,55.7521129]]]}},{"type":"Feature","properties":{"id":"white-mosque-bolgar","coordinates":[49.0612657,54.96613015],"sourceUrl":"https://www.openstreetmap.org/way/265653923","buildingId":"8af79095-4384-4ad0-b200-5bf5929fb85b","pointInFootprint":false,"matchMethod":"exact-osm-source-record-id","osmRecordId":"w265653923@9","buildingPartIds":["65656433-3431-3163-B938-303538656335","63623366-3365-3939-A333-393830326532"]},"geometry":{"type":"Polygon","coordinates":[[[49.0608695,54.9663673],[49.0607982,54.9663746],[49.0606852,54.9660146],[49.0606611,54.9659379],[49.0609211,54.965911],[49.0609473,54.9659083],[49.0609602,54.965907],[49.0610208,54.9659007],[49.0611356,54.9658077],[49.0612441,54.9657963],[49.0614069,54.9658608],[49.0614679,54.9658545],[49.0614847,54.9658528],[49.0615203,54.9658491],[49.0617328,54.9658271],[49.0617601,54.965914],[49.0618703,54.9662654],[49.0617773,54.966275],[49.0618071,54.9663701],[49.0616048,54.9663911],[49.0615982,54.9663703],[49.06172,54.9663577],[49.0615679,54.9658732],[49.0614926,54.965881],[49.0614767,54.9658826],[49.0614158,54.9658889],[49.0613037,54.9659835],[49.0612407,54.9659901],[49.0611951,54.9659949],[49.0610297,54.9659289],[49.0609691,54.9659352],[49.0609559,54.9659366],[49.0608213,54.9659504],[49.0609734,54.9664349],[49.0610905,54.9664228],[49.061097,54.9664436],[49.0608999,54.966464],[49.0608695,54.9663673]]]}}]}
