{"type":"FeatureCollection","sourceFile":"russia-regions.geojson","sourceSha256":"da1dcfae69b4f2b7ff1b5aa1c0e851c13bd8fff77541315f6f3f21140d08c8fa","features":[{"type":"Feature","properties":{"id":"RU-ALT","name":"Алтайский край","iso":"RU-ALT","center":[82.64337542623467,52.52986717],"sourceUrl":"https://raw.githubusercontent.com/timurkanaz/Russia_geojson_OSM/master/GeoJson%27s/Countries/Russia_regions.geojson","dataStatus":"historical-osm-derived-overview","asOf":null},"geometry":{"type":"Point","coordinates":[82.64337542623467,52.52986717]}},{"type":"Feature","properties":{"id":"RU-AMU","name":"Амурская обл.","iso":"RU-AMU","center":[130.18492313388106,52.94975662],"sourceUrl":"https://raw.githubusercontent.com/timurkanaz/Russia_geojson_OSM/master/GeoJson%27s/Countries/Russia_regions.geojson","dataStatus":"historical-osm-derived-overview","asOf":null},"geometry":{"type":"Point","coordinates":[130.18492313388106,52.94975662]}},{"type":"Feature","properties":{"id":"RU-ARK","name":"Архангельская обл.","iso":"RU-ARK","center":[41.525068542731894,63.5895195],"sourceUrl":"https://raw.githubusercontent.com/timurkanaz/Russia_geojson_OSM/master/GeoJson%27s/Countries/Russia_regions.geojson","dataStatus":"historical-osm-derived-overview","asOf":null},"geometry":{"type":"Point","coordinates":[41.525068542731894,63.5895195]}},{"type":"Feature","properties":{"id":"RU-AST","name":"Астраханская обл.","iso":"RU-AST","center":[47.71109061731136,47.14501953],"sourceUrl":"https://raw.githubusercontent.com/timurkanaz/Russia_geojson_OSM/master/GeoJson%27s/Countries/Russia_regions.geojson","dataStatus":"historical-osm-derived-overview","asOf":null},"geometry":{"type":"Point","coordinates":[47.71109061731136,47.14501953]}},{"type":"Feature","properties":{"id":"RU-BEL","name":"Белгородская обл.","iso":"RU-BEL","center":[37.28447842190238,50.614385604999995],"sourceUrl":"https://raw.githubusercontent.com/timurkanaz/Russia_geojson_OSM/master/GeoJson%27s/Countries/Russia_regions.geojson","dataStatus":"historical-osm-derived-overview","asOf":null},"geometry":{"type":"Point","coordinates":[37.28447842190238,50.614385604999995]}},{"type":"Feature","properties":{"id":"RU-BRY","name":"Брянская обл.","iso":"RU-BRY","center":[33.12554696287701,52.937511439999994],"sourceUrl":"https://raw.githubusercontent.com/timurkanaz/Russia_geojson_OSM/master/GeoJson%27s/Countries/Russia_regions.geojson","dataStatus":"historical-osm-derived-overview","asOf":null},"geometry":{"type":"Point","coordinates":[33.12554696287701,52.937511439999994]}},{"type":"Feature","properties":{"id":"RU-VLA","name":"Владимирская обл.","iso":"RU-VLA","center":[40.7245074499922,55.954502105],"sourceUrl":"https://raw.githubusercontent.com/timurkanaz/Russia_geojson_OSM/master/GeoJson%27s/Countries/Russia_regions.geojson","dataStatus":"historical-osm-derived-overview","asOf":null},"geometry":{"type":"Point","coordinates":[40.7245074499922,55.954502105]}},{"type":"Feature","properties":{"id":"RU-VGG","name":"Волгоградская обл.","iso":"RU-VGG","center":[44.45941955750577,49.324949265],"sourceUrl":"https://raw.githubusercontent.com/timurkanaz/Russia_geojson_OSM/master/GeoJson%27s/Countries/Russia_regions.geojson","dataStatus":"historical-osm-derived-overview","asOf":null},"geometry":{"type":"Point","coordinates":[44.45941955750577,49.324949265]}},{"type":"Feature","properties":{"id":"RU-VLG","name":"Вологодская обл.","iso":"RU-VLG","center":[40.886395522456866,60.06097221500001],"sourceUrl":"https://raw.githubusercontent.com/timurkanaz/Russia_geojson_OSM/master/GeoJson%27s/Countries/Russia_regions.geojson","dataStatus":"historical-osm-derived-overview","asOf":null},"geometry":{"type":"Point","coordinates":[40.886395522456866,60.06097221500001]}},{"type":"Feature","properties":{"id":"RU-VOR","name":"Воронежская обл.","iso":"RU-VOR","center":[40.16616733217029,50.837665560000005],"sourceUrl":"https://raw.githubusercontent.com/timurkanaz/Russia_geojson_OSM/master/GeoJson%27s/Countries/Russia_regions.geojson","dataStatus":"historical-osm-derived-overview","asOf":null},"geometry":{"type":"Point","coordinates":[40.16616733217029,50.837665560000005]}},{"type":"Feature","properties":{"id":"RU-YEV","name":"Еврейская АО","iso":"RU-YEV","center":[132.75263307323632,48.57537651],"sourceUrl":"https://raw.githubusercontent.com/timurkanaz/Russia_geojson_OSM/master/GeoJson%27s/Countries/Russia_regions.geojson","dataStatus":"historical-osm-derived-overview","asOf":null},"geometry":{"type":"Point","coordinates":[132.75263307323632,48.57537651]}},{"type":"Feature","properties":{"id":"RU-ZAB","name":"Забайкальский край","iso":"RU-ZAB","center":[118.1364898596814,53.796100615],"sourceUrl":"https://raw.githubusercontent.com/timurkanaz/Russia_geojson_OSM/master/GeoJson%27s/Countries/Russia_regions.geojson","dataStatus":"historical-osm-derived-overview","asOf":null},"geometry":{"type":"Point","coordinates":[118.1364898596814,53.796100615]}},{"type":"Feature","properties":{"id":"RU-IVA","name":"Ивановская обл.","iso":"RU-IVA","center":[41.65718382131568,57.02930069],"sourceUrl":"https://raw.githubusercontent.com/timurkanaz/Russia_geojson_OSM/master/GeoJson%27s/Countries/Russia_regions.geojson","dataStatus":"historical-osm-derived-overview","asOf":null},"geometry":{"type":"Point","coordinates":[41.65718382131568,57.02930069]}},{"type":"Feature","properties":{"id":"RU-IRK","name":"Иркутская обл.","iso":"RU-IRK","center":[108.9304063099656,57.70221138],"sourceUrl":"https://raw.githubusercontent.com/timurkanaz/Russia_geojson_OSM/master/GeoJson%27s/Countries/Russia_regions.geojson","dataStatus":"historical-osm-derived-overview","asOf":null},"geometry":{"type":"Point","coordinates":[108.9304063099656,57.70221138]}},{"type":"Feature","properties":{"id":"RU-KB","name":"Кабардино-Балкарская Республика","iso":"RU-KB","center":[43.545010390672374,43.416284565],"sourceUrl":"https://raw.githubusercontent.com/timurkanaz/Russia_geojson_OSM/master/GeoJson%27s/Countries/Russia_regions.geojson","dataStatus":"historical-osm-derived-overview","asOf":null},"geometry":{"type":"Point","coordinates":[43.545010390672374,43.416284565]}},{"type":"Feature","properties":{"id":"RU-KGD","name":"Калининградская обл.","iso":"RU-KGD","center":[21.422665870601868,54.80337334],"sourceUrl":"https://raw.githubusercontent.com/timurkanaz/Russia_geojson_OSM/master/GeoJson%27s/Countries/Russia_regions.geojson","dataStatus":"historical-osm-derived-overview","asOf":null},"geometry":{"type":"Point","coordinates":[21.422665870601868,54.80337334]}},{"type":"Feature","properties":{"id":"RU-KLU","name":"Калужская обл.","iso":"RU-KLU","center":[35.34892931538908,54.303014755],"sourceUrl":"https://raw.githubusercontent.com/timurkanaz/Russia_geojson_OSM/master/GeoJson%27s/Countries/Russia_regions.geojson","dataStatus":"historical-osm-derived-overview","asOf":null},"geometry":{"type":"Point","coordinates":[35.34892931538908,54.303014755]}},{"type":"Feature","properties":{"id":"RU-KAM","name":"Камчатский край","iso":"RU-KAM","center":[159.82807761105158,57.88798904],"sourceUrl":"https://raw.githubusercontent.com/timurkanaz/Russia_geojson_OSM/master/GeoJson%27s/Countries/Russia_regions.geojson","dataStatus":"historical-osm-derived-overview","asOf":null},"geometry":{"type":"Point","coordinates":[159.82807761105158,57.88798904]}},{"type":"Feature","properties":{"id":"RU-KC","name":"Карачаево-Черкесская Республика","iso":"RU-KC","center":[41.78924530474558,43.836811065],"sourceUrl":"https://raw.githubusercontent.com/timurkanaz/Russia_geojson_OSM/master/GeoJson%27s/Countries/Russia_regions.geojson","dataStatus":"historical-osm-derived-overview","asOf":null},"geometry":{"type":"Point","coordinates":[41.78924530474558,43.836811065]}},{"type":"Feature","properties":{"id":"RU-KEM","name":"Кемеровская обл. - Кузбасс","iso":"RU-KEM","center":[86.78472835870494,54.511322019999994],"sourceUrl":"https://raw.githubusercontent.com/timurkanaz/Russia_geojson_OSM/master/GeoJson%27s/Countries/Russia_regions.geojson","dataStatus":"historical-osm-derived-overview","asOf":null},"geometry":{"type":"Point","coordinates":[86.78472835870494,54.511322019999994]}},{"type":"Feature","properties":{"id":"RU-KIR","name":"Кировская обл.","iso":"RU-KIR","center":[50.19918707477271,58.587917325],"sourceUrl":"https://raw.githubusercontent.com/timurkanaz/Russia_geojson_OSM/master/GeoJson%27s/Countries/Russia_regions.geojson","dataStatus":"historical-osm-derived-overview","asOf":null},"geometry":{"type":"Point","coordinates":[50.19918707477271,58.587917325]}},{"type":"Feature","properties":{"id":"RU-KOS","name":"Костромская обл.","iso":"RU-KOS","center":[43.861514826044704,58.445831295000005],"sourceUrl":"https://raw.githubusercontent.com/timurkanaz/Russia_geojson_OSM/master/GeoJson%27s/Countries/Russia_regions.geojson","dataStatus":"historical-osm-derived-overview","asOf":null},"geometry":{"type":"Point","coordinates":[43.861514826044704,58.445831295000005]}},{"type":"Feature","properties":{"id":"RU-KDA","name":"Краснодарский край","iso":"RU-KDA","center":[38.1021370811966,45.13222313],"sourceUrl":"https://raw.githubusercontent.com/timurkanaz/Russia_geojson_OSM/master/GeoJson%27s/Countries/Russia_regions.geojson","dataStatus":"historical-osm-derived-overview","asOf":null},"geometry":{"type":"Point","coordinates":[38.1021370811966,45.13222313]}},{"type":"Feature","properties":{"id":"RU-KYA","name":"Красноярский край","iso":"RU-KYA","center":[95.87237527943998,64.72121810499999],"sourceUrl":"https://raw.githubusercontent.com/timurkanaz/Russia_geojson_OSM/master/GeoJson%27s/Countries/Russia_regions.geojson","dataStatus":"historical-osm-derived-overview","asOf":null},"geometry":{"type":"Point","coordinates":[95.87237527943998,64.72121810499999]}},{"type":"Feature","properties":{"id":"RU-KGN","name":"Курганская обл.","iso":"RU-KGN","center":[65.45627054864664,55.54273605],"sourceUrl":"https://raw.githubusercontent.com/timurkanaz/Russia_geojson_OSM/master/GeoJson%27s/Countries/Russia_regions.geojson","dataStatus":"historical-osm-derived-overview","asOf":null},"geometry":{"type":"Point","coordinates":[65.45627054864664,55.54273605]}},{"type":"Feature","properties":{"id":"RU-KRS","name":"Курская обл.","iso":"RU-KRS","center":[36.47152093303637,51.71459007],"sourceUrl":"https://raw.githubusercontent.com/timurkanaz/Russia_geojson_OSM/master/GeoJson%27s/Countries/Russia_regions.geojson","dataStatus":"historical-osm-derived-overview","asOf":null},"geometry":{"type":"Point","coordinates":[36.47152093303637,51.71459007]}},{"type":"Feature","properties":{"id":"RU-LEN","name":"Ленинградская обл.","iso":"RU-LEN","center":[32.96180378078591,59.879016875],"sourceUrl":"https://raw.githubusercontent.com/timurkanaz/Russia_geojson_OSM/master/GeoJson%27s/Countries/Russia_regions.geojson","dataStatus":"historical-osm-derived-overview","asOf":null},"geometry":{"type":"Point","coordinates":[32.96180378078591,59.879016875]}},{"type":"Feature","properties":{"id":"RU-LIP","name":"Липецкая обл.","iso":"RU-LIP","center":[38.93297975751564,52.736108779999995],"sourceUrl":"https://raw.githubusercontent.com/timurkanaz/Russia_geojson_OSM/master/GeoJson%27s/Countries/Russia_regions.geojson","dataStatus":"historical-osm-derived-overview","asOf":null},"geometry":{"type":"Point","coordinates":[38.93297975751564,52.736108779999995]}},{"type":"Feature","properties":{"id":"RU-MAG","name":"Магаданская обл.","iso":"RU-MAG","center":[154.09560313342323,62.57283592],"sourceUrl":"https://raw.githubusercontent.com/timurkanaz/Russia_geojson_OSM/master/GeoJson%27s/Countries/Russia_regions.geojson","dataStatus":"historical-osm-derived-overview","asOf":null},"geometry":{"type":"Point","coordinates":[154.09560313342323,62.57283592]}},{"type":"Feature","properties":{"id":"RU-MOS","name":"Московская обл.","iso":"RU-MOS","center":[38.94970604709404,55.584680555000006],"sourceUrl":"https://raw.githubusercontent.com/timurkanaz/Russia_geojson_OSM/master/GeoJson%27s/Countries/Russia_regions.geojson","dataStatus":"historical-osm-derived-overview","asOf":null},"geometry":{"type":"Point","coordinates":[38.94970604709404,55.584680555000006]}},{"type":"Feature","properties":{"id":"RU-MUR","name":"Мурманская обл.","iso":"RU-MUR","center":[34.56071840017097,68.00416565],"sourceUrl":"https://raw.githubusercontent.com/timurkanaz/Russia_geojson_OSM/master/GeoJson%27s/Countries/Russia_regions.geojson","dataStatus":"historical-osm-derived-overview","asOf":null},"geometry":{"type":"Point","coordinates":[34.56071840017097,68.00416565]}},{"type":"Feature","properties":{"id":"RU-NEN","name":"Ненецкий АО","iso":"RU-NEN","center":[58.59076680583338,67.84765625],"sourceUrl":"https://raw.githubusercontent.com/timurkanaz/Russia_geojson_OSM/master/GeoJson%27s/Countries/Russia_regions.geojson","dataStatus":"historical-osm-derived-overview","asOf":null},"geometry":{"type":"Point","coordinates":[58.59076680583338,67.84765625]}},{"type":"Feature","properties":{"id":"RU-NIZ","name":"Нижегородская обл.","iso":"RU-NIZ","center":[44.305093137927194,56.28096771],"sourceUrl":"https://raw.githubusercontent.com/timurkanaz/Russia_geojson_OSM/master/GeoJson%27s/Countries/Russia_regions.geojson","dataStatus":"historical-osm-derived-overview","asOf":null},"geometry":{"type":"Point","coordinates":[44.305093137927194,56.28096771]}},{"type":"Feature","properties":{"id":"RU-NGR","name":"Новгородская обл.","iso":"RU-NGR","center":[31.86192136344109,58.144731525],"sourceUrl":"https://raw.githubusercontent.com/timurkanaz/Russia_geojson_OSM/master/GeoJson%27s/Countries/Russia_regions.geojson","dataStatus":"historical-osm-derived-overview","asOf":null},"geometry":{"type":"Point","coordinates":[31.86192136344109,58.144731525]}},{"type":"Feature","properties":{"id":"RU-NVS","name":"Новосибирская обл.","iso":"RU-NVS","center":[80.04472392179144,55.267513275],"sourceUrl":"https://raw.githubusercontent.com/timurkanaz/Russia_geojson_OSM/master/GeoJson%27s/Countries/Russia_regions.geojson","dataStatus":"historical-osm-derived-overview","asOf":null},"geometry":{"type":"Point","coordinates":[80.04472392179144,55.267513275]}},{"type":"Feature","properties":{"id":"RU-OMS","name":"Омская обл.","iso":"RU-OMS","center":[73.19488299056269,56.01184845],"sourceUrl":"https://raw.githubusercontent.com/timurkanaz/Russia_geojson_OSM/master/GeoJson%27s/Countries/Russia_regions.geojson","dataStatus":"historical-osm-derived-overview","asOf":null},"geometry":{"type":"Point","coordinates":[73.19488299056269,56.01184845]}},{"type":"Feature","properties":{"id":"RU-ORE","name":"Оренбургская обл.","iso":"RU-ORE","center":[53.54443050463061,52.449762344999996],"sourceUrl":"https://raw.githubusercontent.com/timurkanaz/Russia_geojson_OSM/master/GeoJson%27s/Countries/Russia_regions.geojson","dataStatus":"historical-osm-derived-overview","asOf":null},"geometry":{"type":"Point","coordinates":[53.54443050463061,52.449762344999996]}},{"type":"Feature","properties":{"id":"RU-ORL","name":"Орловская обл.","iso":"RU-ORL","center":[36.40872295257833,52.798986435],"sourceUrl":"https://raw.githubusercontent.com/timurkanaz/Russia_geojson_OSM/master/GeoJson%27s/Countries/Russia_regions.geojson","dataStatus":"historical-osm-derived-overview","asOf":null},"geometry":{"type":"Point","coordinates":[36.40872295257833,52.798986435]}},{"type":"Feature","properties":{"id":"RU-PNZ","name":"Пензенская обл.","iso":"RU-PNZ","center":[44.77931373738985,53.14325714],"sourceUrl":"https://raw.githubusercontent.com/timurkanaz/Russia_geojson_OSM/master/GeoJson%27s/Countries/Russia_regions.geojson","dataStatus":"historical-osm-derived-overview","asOf":null},"geometry":{"type":"Point","coordinates":[44.77931373738985,53.14325714]}},{"type":"Feature","properties":{"id":"RU-PER","name":"Пермский край","iso":"RU-PER","center":[56.44187322990125,58.895669935],"sourceUrl":"https://raw.githubusercontent.com/timurkanaz/Russia_geojson_OSM/master/GeoJson%27s/Countries/Russia_regions.geojson","dataStatus":"historical-osm-derived-overview","asOf":null},"geometry":{"type":"Point","coordinates":[56.44187322990125,58.895669935]}},{"type":"Feature","properties":{"id":"RU-PRI","name":"Приморский край","iso":"RU-PRI","center":[135.11855123599037,45.369094845],"sourceUrl":"https://raw.githubusercontent.com/timurkanaz/Russia_geojson_OSM/master/GeoJson%27s/Countries/Russia_regions.geojson","dataStatus":"historical-osm-derived-overview","asOf":null},"geometry":{"type":"Point","coordinates":[135.11855123599037,45.369094845]}},{"type":"Feature","properties":{"id":"RU-PSK","name":"Псковская обл.","iso":"RU-PSK","center":[29.21978907299018,57.29951286],"sourceUrl":"https://raw.githubusercontent.com/timurkanaz/Russia_geojson_OSM/master/GeoJson%27s/Countries/Russia_regions.geojson","dataStatus":"historical-osm-derived-overview","asOf":null},"geometry":{"type":"Point","coordinates":[29.21978907299018,57.29951286]}},{"type":"Feature","properties":{"id":"RU-AD","name":"Республика Адыгея (Адыгея)","iso":"RU-AD","center":[40.15420832096501,44.483425145],"sourceUrl":"https://raw.githubusercontent.com/timurkanaz/Russia_geojson_OSM/master/GeoJson%27s/Countries/Russia_regions.geojson","dataStatus":"historical-osm-derived-overview","asOf":null},"geometry":{"type":"Point","coordinates":[40.15420832096501,44.483425145]}},{"type":"Feature","properties":{"id":"RU-AL","name":"Республика Алтай","iso":"RU-AL","center":[86.92542559056987,50.862840655],"sourceUrl":"https://raw.githubusercontent.com/timurkanaz/Russia_geojson_OSM/master/GeoJson%27s/Countries/Russia_regions.geojson","dataStatus":"historical-osm-derived-overview","asOf":null},"geometry":{"type":"Point","coordinates":[86.92542559056987,50.862840655]}},{"type":"Feature","properties":{"id":"RU-BA","name":"Республика Башкортостан","iso":"RU-BA","center":[56.31354848212128,54.071199414999995],"sourceUrl":"https://raw.githubusercontent.com/timurkanaz/Russia_geojson_OSM/master/GeoJson%27s/Countries/Russia_regions.geojson","dataStatus":"historical-osm-derived-overview","asOf":null},"geometry":{"type":"Point","coordinates":[56.31354848212128,54.071199414999995]}},{"type":"Feature","properties":{"id":"RU-BU","name":"Республика Бурятия","iso":"RU-BU","center":[111.05419795255038,53.593627925],"sourceUrl":"https://raw.githubusercontent.com/timurkanaz/Russia_geojson_OSM/master/GeoJson%27s/Countries/Russia_regions.geojson","dataStatus":"historical-osm-derived-overview","asOf":null},"geometry":{"type":"Point","coordinates":[111.05419795255038,53.593627925]}},{"type":"Feature","properties":{"id":"RU-DA","name":"Республика Дагестан","iso":"RU-DA","center":[46.957083779132745,43.093149185],"sourceUrl":"https://raw.githubusercontent.com/timurkanaz/Russia_geojson_OSM/master/GeoJson%27s/Countries/Russia_regions.geojson","dataStatus":"historical-osm-derived-overview","asOf":null},"geometry":{"type":"Point","coordinates":[46.957083779132745,43.093149185]}},{"type":"Feature","properties":{"id":"RU-IN","name":"Республика Ингушетия","iso":"RU-IN","center":[45.03227471621349,43.09539604],"sourceUrl":"https://raw.githubusercontent.com/timurkanaz/Russia_geojson_OSM/master/GeoJson%27s/Countries/Russia_regions.geojson","dataStatus":"historical-osm-derived-overview","asOf":null},"geometry":{"type":"Point","coordinates":[45.03227471621349,43.09539604]}},{"type":"Feature","properties":{"id":"RU-KL","name":"Республика Калмыкия","iso":"RU-KL","center":[45.46169515738545,46.505886079999996],"sourceUrl":"https://raw.githubusercontent.com/timurkanaz/Russia_geojson_OSM/master/GeoJson%27s/Countries/Russia_regions.geojson","dataStatus":"historical-osm-derived-overview","asOf":null},"geometry":{"type":"Point","coordinates":[45.46169515738545,46.505886079999996]}},{"type":"Feature","properties":{"id":"RU-KR","name":"Республика Карелия","iso":"RU-KR","center":[33.32177529649461,63.65073585499999],"sourceUrl":"https://raw.githubusercontent.com/timurkanaz/Russia_geojson_OSM/master/GeoJson%27s/Countries/Russia_regions.geojson","dataStatus":"historical-osm-derived-overview","asOf":null},"geometry":{"type":"Point","coordinates":[33.32177529649461,63.65073585499999]}},{"type":"Feature","properties":{"id":"RU-KO","name":"Республика Коми","iso":"RU-KO","center":[53.10652863313335,63.81896019],"sourceUrl":"https://raw.githubusercontent.com/timurkanaz/Russia_geojson_OSM/master/GeoJson%27s/Countries/Russia_regions.geojson","dataStatus":"historical-osm-derived-overview","asOf":null},"geometry":{"type":"Point","coordinates":[53.10652863313335,63.81896019]}},{"type":"Feature","properties":{"id":"overview-крым","name":"Республика Крым","iso":null,"center":[34.417772595109795,45.21061175],"sourceUrl":"https://raw.githubusercontent.com/timurkanaz/Russia_geojson_OSM/master/GeoJson%27s/Countries/Russia_regions.geojson","dataStatus":"historical-osm-derived-overview","asOf":null},"geometry":{"type":"Point","coordinates":[34.417772595109795,45.21061175]}},{"type":"Feature","properties":{"id":"RU-ME","name":"Республика Марий Эл","iso":"RU-ME","center":[47.94592858693209,56.59632492],"sourceUrl":"https://raw.githubusercontent.com/timurkanaz/Russia_geojson_OSM/master/GeoJson%27s/Countries/Russia_regions.geojson","dataStatus":"historical-osm-derived-overview","asOf":null},"geometry":{"type":"Point","coordinates":[47.94592858693209,56.59632492]}},{"type":"Feature","properties":{"id":"RU-MO","name":"Республика Мордовия","iso":"RU-MO","center":[44.561753750121056,54.41733551],"sourceUrl":"https://raw.githubusercontent.com/timurkanaz/Russia_geojson_OSM/master/GeoJson%27s/Countries/Russia_regions.geojson","dataStatus":"historical-osm-derived-overview","asOf":null},"geometry":{"type":"Point","coordinates":[44.561753750121056,54.41733551]}},{"type":"Feature","properties":{"id":"RU-SA","name":"Республика Саха (Якутия)","iso":"RU-SA","center":[129.30387701502576,64.751766205],"sourceUrl":"https://raw.githubusercontent.com/timurkanaz/Russia_geojson_OSM/master/GeoJson%27s/Countries/Russia_regions.geojson","dataStatus":"historical-osm-derived-overview","asOf":null},"geometry":{"type":"Point","coordinates":[129.30387701502576,64.751766205]}},{"type":"Feature","properties":{"id":"RU-SE","name":"Республика Северная Осетия - Алания","iso":"RU-SE","center":[44.440404012559924,43.15807152],"sourceUrl":"https://raw.githubusercontent.com/timurkanaz/Russia_geojson_OSM/master/GeoJson%27s/Countries/Russia_regions.geojson","dataStatus":"historical-osm-derived-overview","asOf":null},"geometry":{"type":"Point","coordinates":[44.440404012559924,43.15807152]}},{"type":"Feature","properties":{"id":"RU-TA","name":"Республика Татарстан (Татарстан)","iso":"RU-TA","center":[50.68003718239295,55.325333549999996],"sourceUrl":"https://raw.githubusercontent.com/timurkanaz/Russia_geojson_OSM/master/GeoJson%27s/Countries/Russia_regions.geojson","dataStatus":"current-osm-pilot","asOf":"2026-09-04T10:15:46Z"},"geometry":{"type":"Point","coordinates":[50.68003718239295,55.325333549999996]}},{"type":"Feature","properties":{"id":"RU-TY","name":"Республика Тыва","iso":"RU-TY","center":[94.23694117055544,51.75539589],"sourceUrl":"https://raw.githubusercontent.com/timurkanaz/Russia_geojson_OSM/master/GeoJson%27s/Countries/Russia_regions.geojson","dataStatus":"historical-osm-derived-overview","asOf":null},"geometry":{"type":"Point","coordinates":[94.23694117055544,51.75539589]}},{"type":"Feature","properties":{"id":"RU-KK","name":"Республика Хакасия","iso":"RU-KK","center":[90.36100894636887,53.35863304],"sourceUrl":"https://raw.githubusercontent.com/timurkanaz/Russia_geojson_OSM/master/GeoJson%27s/Countries/Russia_regions.geojson","dataStatus":"historical-osm-derived-overview","asOf":null},"geometry":{"type":"Point","coordinates":[90.36100894636887,53.35863304]}},{"type":"Feature","properties":{"id":"RU-ROS","name":"Ростовская обл.","iso":"RU-ROS","center":[40.94169022063565,48.06903267],"sourceUrl":"https://raw.githubusercontent.com/timurkanaz/Russia_geojson_OSM/master/GeoJson%27s/Countries/Russia_regions.geojson","dataStatus":"historical-osm-derived-overview","asOf":null},"geometry":{"type":"Point","coordinates":[40.94169022063565,48.06903267]}},{"type":"Feature","properties":{"id":"RU-RYA","name":"Рязанская обл.","iso":"RU-RYA","center":[40.66708247454552,54.31782913],"sourceUrl":"https://raw.githubusercontent.com/timurkanaz/Russia_geojson_OSM/master/GeoJson%27s/Countries/Russia_regions.geojson","dataStatus":"historical-osm-derived-overview","asOf":null},"geometry":{"type":"Point","coordinates":[40.66708247454552,54.31782913]}},{"type":"Feature","properties":{"id":"RU-SAM","name":"Самарская обл.","iso":"RU-SAM","center":[50.147140048842054,53.24206352],"sourceUrl":"https://raw.githubusercontent.com/timurkanaz/Russia_geojson_OSM/master/GeoJson%27s/Countries/Russia_regions.geojson","dataStatus":"historical-osm-derived-overview","asOf":null},"geometry":{"type":"Point","coordinates":[50.147140048842054,53.24206352]}},{"type":"Feature","properties":{"id":"RU-SAR","name":"Саратовская обл.","iso":"RU-SAR","center":[46.61099711724256,51.31865501],"sourceUrl":"https://raw.githubusercontent.com/timurkanaz/Russia_geojson_OSM/master/GeoJson%27s/Countries/Russia_regions.geojson","dataStatus":"historical-osm-derived-overview","asOf":null},"geometry":{"type":"Point","coordinates":[46.61099711724256,51.31865501]}},{"type":"Feature","properties":{"id":"RU-SAK","name":"Сахалинская обл.","iso":"RU-SAK","center":[143.02655427621244,50.15931129],"sourceUrl":"https://raw.githubusercontent.com/timurkanaz/Russia_geojson_OSM/master/GeoJson%27s/Countries/Russia_regions.geojson","dataStatus":"historical-osm-derived-overview","asOf":null},"geometry":{"type":"Point","coordinates":[143.02655427621244,50.15931129]}},{"type":"Feature","properties":{"id":"RU-SVE","name":"Свердловская обл.","iso":"RU-SVE","center":[62.294451483807386,59.02659798],"sourceUrl":"https://raw.githubusercontent.com/timurkanaz/Russia_geojson_OSM/master/GeoJson%27s/Countries/Russia_regions.geojson","dataStatus":"historical-osm-derived-overview","asOf":null},"geometry":{"type":"Point","coordinates":[62.294451483807386,59.02659798]}},{"type":"Feature","properties":{"id":"RU-SMO","name":"Смоленская обл.","iso":"RU-SMO","center":[32.9275120769953,54.726867674999994],"sourceUrl":"https://raw.githubusercontent.com/timurkanaz/Russia_geojson_OSM/master/GeoJson%27s/Countries/Russia_regions.geojson","dataStatus":"historical-osm-derived-overview","asOf":null},"geometry":{"type":"Point","coordinates":[32.9275120769953,54.726867674999994]}},{"type":"Feature","properties":{"id":"RU-STA","name":"Ставропольский край","iso":"RU-STA","center":[43.68871860999132,44.931877135],"sourceUrl":"https://raw.githubusercontent.com/timurkanaz/Russia_geojson_OSM/master/GeoJson%27s/Countries/Russia_regions.geojson","dataStatus":"historical-osm-derived-overview","asOf":null},"geometry":{"type":"Point","coordinates":[43.68871860999132,44.931877135]}},{"type":"Feature","properties":{"id":"RU-TAM","name":"Тамбовская обл.","iso":"RU-TAM","center":[41.65447041073601,52.67986679],"sourceUrl":"https://raw.githubusercontent.com/timurkanaz/Russia_geojson_OSM/master/GeoJson%27s/Countries/Russia_regions.geojson","dataStatus":"historical-osm-derived-overview","asOf":null},"geometry":{"type":"Point","coordinates":[41.65447041073601,52.67986679]}},{"type":"Feature","properties":{"id":"RU-TVE","name":"Тверская обл.","iso":"RU-TVE","center":[35.26683079691683,57.21124077],"sourceUrl":"https://raw.githubusercontent.com/timurkanaz/Russia_geojson_OSM/master/GeoJson%27s/Countries/Russia_regions.geojson","dataStatus":"historical-osm-derived-overview","asOf":null},"geometry":{"type":"Point","coordinates":[35.26683079691683,57.21124077]}},{"type":"Feature","properties":{"id":"RU-TOM","name":"Томская обл.","iso":"RU-TOM","center":[81.51440505442416,58.349918365],"sourceUrl":"https://raw.githubusercontent.com/timurkanaz/Russia_geojson_OSM/master/GeoJson%27s/Countries/Russia_regions.geojson","dataStatus":"historical-osm-derived-overview","asOf":null},"geometry":{"type":"Point","coordinates":[81.51440505442416,58.349918365]}},{"type":"Feature","properties":{"id":"RU-TUL","name":"Тульская обл.","iso":"RU-TUL","center":[37.42647616242193,53.881725315],"sourceUrl":"https://raw.githubusercontent.com/timurkanaz/Russia_geojson_OSM/master/GeoJson%27s/Countries/Russia_regions.geojson","dataStatus":"historical-osm-derived-overview","asOf":null},"geometry":{"type":"Point","coordinates":[37.42647616242193,53.881725315]}},{"type":"Feature","properties":{"id":"RU-TYU","name":"Тюменская обл.","iso":"RU-TYU","center":[67.82881157358187,57.543605805],"sourceUrl":"https://raw.githubusercontent.com/timurkanaz/Russia_geojson_OSM/master/GeoJson%27s/Countries/Russia_regions.geojson","dataStatus":"historical-osm-derived-overview","asOf":null},"geometry":{"type":"Point","coordinates":[67.82881157358187,57.543605805]}},{"type":"Feature","properties":{"id":"overview-удмуртская","name":"Удмуртская Республика","iso":null,"center":[52.76914002216954,57.20734787],"sourceUrl":"https://raw.githubusercontent.com/timurkanaz/Russia_geojson_OSM/master/GeoJson%27s/Countries/Russia_regions.geojson","dataStatus":"historical-osm-derived-overview","asOf":null},"geometry":{"type":"Point","coordinates":[52.76914002216954,57.20734787]}},{"type":"Feature","properties":{"id":"RU-ULY","name":"Ульяновская обл.","iso":"RU-ULY","center":[47.41220988747147,53.736118315],"sourceUrl":"https://raw.githubusercontent.com/timurkanaz/Russia_geojson_OSM/master/GeoJson%27s/Countries/Russia_regions.geojson","dataStatus":"historical-osm-derived-overview","asOf":null},"geometry":{"type":"Point","coordinates":[47.41220988747147,53.736118315]}},{"type":"Feature","properties":{"id":"RU-KHA","name":"Хабаровский край","iso":"RU-KHA","center":[133.469209059678,54.578454969999996],"sourceUrl":"https://raw.githubusercontent.com/timurkanaz/Russia_geojson_OSM/master/GeoJson%27s/Countries/Russia_regions.geojson","dataStatus":"historical-osm-derived-overview","asOf":null},"geometry":{"type":"Point","coordinates":[133.469209059678,54.578454969999996]}},{"type":"Feature","properties":{"id":"RU-KHM","name":"Ханты-Мансийский АО - Югра","iso":"RU-KHM","center":[71.97749463480704,62.13010216],"sourceUrl":"https://raw.githubusercontent.com/timurkanaz/Russia_geojson_OSM/master/GeoJson%27s/Countries/Russia_regions.geojson","dataStatus":"historical-osm-derived-overview","asOf":null},"geometry":{"type":"Point","coordinates":[71.97749463480704,62.13010216]}},{"type":"Feature","properties":{"id":"RU-CHE","name":"Челябинская обл.","iso":"RU-CHE","center":[61.47106716067552,54.202983855],"sourceUrl":"https://raw.githubusercontent.com/timurkanaz/Russia_geojson_OSM/master/GeoJson%27s/Countries/Russia_regions.geojson","dataStatus":"historical-osm-derived-overview","asOf":null},"geometry":{"type":"Point","coordinates":[61.47106716067552,54.202983855]}},{"type":"Feature","properties":{"id":"RU-CE","name":"Чеченская Республика","iso":"RU-CE","center":[45.887852012637296,43.223178865],"sourceUrl":"https://raw.githubusercontent.com/timurkanaz/Russia_geojson_OSM/master/GeoJson%27s/Countries/Russia_regions.geojson","dataStatus":"historical-osm-derived-overview","asOf":null},"geometry":{"type":"Point","coordinates":[45.887852012637296,43.223178865]}},{"type":"Feature","properties":{"id":"RU-CU","name":"Чувашская Республика - Чувашия","iso":"RU-CU","center":[47.170941315821764,55.49415779],"sourceUrl":"https://raw.githubusercontent.com/timurkanaz/Russia_geojson_OSM/master/GeoJson%27s/Countries/Russia_regions.geojson","dataStatus":"historical-osm-derived-overview","asOf":null},"geometry":{"type":"Point","coordinates":[47.170941315821764,55.49415779]}},{"type":"Feature","properties":{"id":"RU-CHU","name":"Чукотский АО","iso":"RU-CHU","center":[169.48431743516858,65.93019104000001],"sourceUrl":"https://raw.githubusercontent.com/timurkanaz/Russia_geojson_OSM/master/GeoJson%27s/Countries/Russia_regions.geojson","dataStatus":"historical-osm-derived-overview","asOf":null},"geometry":{"type":"Point","coordinates":[169.48431743516858,65.93019104000001]}},{"type":"Feature","properties":{"id":"RU-YAN","name":"Ямало-Ненецкий АО","iso":"RU-YAN","center":[69.32709657604758,67.53359222],"sourceUrl":"https://raw.githubusercontent.com/timurkanaz/Russia_geojson_OSM/master/GeoJson%27s/Countries/Russia_regions.geojson","dataStatus":"historical-osm-derived-overview","asOf":null},"geometry":{"type":"Point","coordinates":[69.32709657604758,67.53359222]}},{"type":"Feature","properties":{"id":"RU-YAR","name":"Ярославская обл.","iso":"RU-YAR","center":[39.1349432821133,57.749061585],"sourceUrl":"https://raw.githubusercontent.com/timurkanaz/Russia_geojson_OSM/master/GeoJson%27s/Countries/Russia_regions.geojson","dataStatus":"historical-osm-derived-overview","asOf":null},"geometry":{"type":"Point","coordinates":[39.1349432821133,57.749061585]}},{"type":"Feature","properties":{"id":"RU-MOW","name":"г. Москва","iso":"RU-MOW","center":[37.65894533159935,55.71176529],"sourceUrl":"https://raw.githubusercontent.com/timurkanaz/Russia_geojson_OSM/master/GeoJson%27s/Countries/Russia_regions.geojson","dataStatus":"historical-osm-derived-overview","asOf":null},"geometry":{"type":"Point","coordinates":[37.65894533159935,55.71176529]}},{"type":"Feature","properties":{"id":"RU-SPE","name":"г. Санкт-Петербург","iso":"RU-SPE","center":[30.362905253588128,59.934720995],"sourceUrl":"https://raw.githubusercontent.com/timurkanaz/Russia_geojson_OSM/master/GeoJson%27s/Countries/Russia_regions.geojson","dataStatus":"historical-osm-derived-overview","asOf":null},"geometry":{"type":"Point","coordinates":[30.362905253588128,59.934720995]}},{"type":"Feature","properties":{"id":"overview-севастополь","name":"город федерального значения Севастополь","iso":null,"center":[33.45959860374677,44.5655503],"sourceUrl":"https://raw.githubusercontent.com/timurkanaz/Russia_geojson_OSM/master/GeoJson%27s/Countries/Russia_regions.geojson","dataStatus":"historical-osm-derived-overview","asOf":null},"geometry":{"type":"Point","coordinates":[33.45959860374677,44.5655503]}}]}
