{"type":"FeatureCollection","features":[{"type":"Feature","id":"kazan-school","geometry":{"type":"Polygon","coordinates":[[[49.1942722,55.6783194],[49.1963401,55.6793145],[49.1977429,55.6783829],[49.1980433,55.6785236],[49.1984162,55.6781894],[49.195227,55.6776661],[49.1942722,55.6783194]]]},"properties":{"signalId":"kazan-school","precision":"site","sourceUrl":"https://www.openstreetmap.org/way/1489504229","asOf":"2026-09-04T12:50:50Z","note":"Показан подписанный в OpenStreetMap участок «строительство школы» южнее Детского проезда в ЖК «Станция Спортивная». Контур way/1489504229 получен из OSM API и совпадает с Overpass; положение согласуется с генпланом застройщика. Это картографический контур стройплощадки, не контур здания и не кадастровая граница. Он не подтверждает текущую стадию работ."}}]}
